STARLINK-34104          
1 64102U 25110G   25219.72686364  .00047121  00000+0  11787-2 0  9993
2 64102  53.1593 307.0116 0001400  71.8687 288.2470 15.39672731 12931
STARLINK-34179          
1 64103U 25110H   25219.59239774  .00034782  00000+0  87545-3 0  9993
2 64103  53.1589 307.5926 0001497  83.0073 277.1102 15.39623759 12914
STARLINK-34176          
1 64104U 25110J   25219.78249937  .00031064  00000+0  78316-3 0  9993
2 64104  53.1588 306.6442 0001183 100.6237 259.4901 15.39630450 12946
STARLINK-33949          
1 64105U 25110K   25219.71724820  .00033078  00000+0  83289-3 0  9998
2 64105  53.1596 306.9492 0001489  66.0563 294.0598 15.39636803 12934
STARLINK-33970          
1 64106U 25110L   25219.71260371  .00035995  00000+0  90498-3 0  9995
2 64106  53.1594 306.9198 0001076  89.2720 270.8408 15.39641089 12934
STARLINK-33912          
1 64107U 25110M   25220.22761401  .00034926  00000+0  87907-3 0  9998
2 64107  53.1603 304.4456 0001344 104.2301 255.8853 15.39622090 13015
STARLINK-34156          
1 64108U 25110N   25219.57348797  .00025937  00000+0  65588-3 0  9997
2 64108  53.1609 307.4735 0001072  70.0138 290.0982 15.39634686 12917
STARLINK-34124          
1 64109U 25110P   25220.21832693  .00022158  00000+0  56202-3 0  9999
2 64109  53.1588 304.3870 0001405  78.2414 281.8748 15.39636228 13011
STARLINK-34145          
1 64110U 25110Q   25219.58311153  .00034004  00000+0  85597-3 0  9994
2 64110  53.1599 307.5333 0001217  90.1715 269.9430 15.39630989 13015
STARLINK-34148          
1 64111U 25110R   25220.21798925  .00024364  00000+0  61670-3 0  9997
2 64111  53.1597 304.3860 0001290  75.5028 284.6120 15.39641908 13012
STARLINK-34136          
1 64112U 25110S   25219.70365134  .00035213  00000+0  88564-3 0  9998
2 64112  53.1601 306.8617 0001097  89.4397 270.6734 15.39640398 12932
STARLINK-33839          
1 64113U 25110T   25220.21334575  .00025787  00000+0  65224-3 0  9995
2 64113  53.1587 304.3534 0001348 122.1461 237.9675 15.39630926 13019
STARLINK-34064          
1 64114U 25110U   25220.22727616  .00025198  00000+0  63754-3 0  9991
2 64114  53.1597 304.4411 0001006 120.3075 239.8030 15.39635044 13010
STARLINK-34067          
1 64115U 25110V   25219.75463703  .00044952  00000+0  11265-2 0  9990
2 64115  53.1589 306.4675 0001193  92.9399 267.1742 15.39637955 12944
STARLINK-34080          
1 64116U 25110W   25219.75430232  .00086315  00000+0  21418-2 0  9992
2 64116  53.1592 306.4670 0001541  51.1039 309.0103 15.39643966 12945
STARLINK-34122          
1 64117U 25110X   25219.55524850  .00027134  00000+0  68595-3 0  9993
2 64117  53.1593 307.3561 0001233  80.9464 279.1680 15.39618752 12915
