[{"OBJECT_NAME":"STARLINK-34104","OBJECT_ID":"2025-110G","EPOCH":"2025-08-07T17:26:41.018496","MEAN_MOTION":15.39672731,"ECCENTRICITY":0.00014,"INCLINATION":53.1593,"RA_OF_ASC_NODE":307.0116,"ARG_OF_PERICENTER":71.8687,"MEAN_ANOMALY":288.247,"EPHEMERIS_TYPE":0,"CLASSIFICATION_TYPE":"U","NORAD_CAT_ID":64102,"ELEMENT_SET_NO":999,"REV_AT_EPOCH":1293,"BSTAR":0.0011787,"MEAN_MOTION_DOT":0.00047121,"MEAN_MOTION_DDOT":0},{"OBJECT_NAME":"STARLINK-34179","OBJECT_ID":"2025-110H","EPOCH":"2025-08-07T14:13:03.164736","MEAN_MOTION":15.39623759,"ECCENTRICITY":0.0001497,"INCLINATION":53.1589,"RA_OF_ASC_NODE":307.5926,"ARG_OF_PERICENTER":83.0073,"MEAN_ANOMALY":277.1102,"EPHEMERIS_TYPE":0,"CLASSIFICATION_TYPE":"U","NORAD_CAT_ID":64103,"ELEMENT_SET_NO":999,"REV_AT_EPOCH":1291,"BSTAR":0.00087545,"MEAN_MOTION_DOT":0.00034782,"MEAN_MOTION_DDOT":0},{"OBJECT_NAME":"STARLINK-34176","OBJECT_ID":"2025-110J","EPOCH":"2025-08-07T18:46:47.945568","MEAN_MOTION":15.3963045,"ECCENTRICITY":0.0001183,"INCLINATION":53.1588,"RA_OF_ASC_NODE":306.6442,"ARG_OF_PERICENTER":100.6237,"MEAN_ANOMALY":259.4901,"EPHEMERIS_TYPE":0,"CLASSIFICATION_TYPE":"U","NORAD_CAT_ID":64104,"ELEMENT_SET_NO":999,"REV_AT_EPOCH":1294,"BSTAR":0.00078316,"MEAN_MOTION_DOT":0.00031064,"MEAN_MOTION_DDOT":0},{"OBJECT_NAME":"STARLINK-33949","OBJECT_ID":"2025-110K","EPOCH":"2025-08-07T17:12:50.244480","MEAN_MOTION":15.39636803,"ECCENTRICITY":0.0001489,"INCLINATION":53.1596,"RA_OF_ASC_NODE":306.9492,"ARG_OF_PERICENTER":66.0563,"MEAN_ANOMALY":294.0598,"EPHEMERIS_TYPE":0,"CLASSIFICATION_TYPE":"U","NORAD_CAT_ID":64105,"ELEMENT_SET_NO":999,"REV_AT_EPOCH":1293,"BSTAR":0.00083289,"MEAN_MOTION_DOT":0.00033078,"MEAN_MOTION_DDOT":0},{"OBJECT_NAME":"STARLINK-33970","OBJECT_ID":"2025-110L","EPOCH":"2025-08-07T17:06:08.960544","MEAN_MOTION":15.39641089,"ECCENTRICITY":0.0001076,"INCLINATION":53.1594,"RA_OF_ASC_NODE":306.9198,"ARG_OF_PERICENTER":89.272,"MEAN_ANOMALY":270.8408,"EPHEMERIS_TYPE":0,"CLASSIFICATION_TYPE":"U","NORAD_CAT_ID":64106,"ELEMENT_SET_NO":999,"REV_AT_EPOCH":1293,"BSTAR":0.00090498,"MEAN_MOTION_DOT":0.00035995,"MEAN_MOTION_DDOT":0},{"OBJECT_NAME":"STARLINK-33912","OBJECT_ID":"2025-110M","EPOCH":"2025-08-08T05:27:45.850464","MEAN_MOTION":15.3962209,"ECCENTRICITY":0.0001344,"INCLINATION":53.1603,"RA_OF_ASC_NODE":304.4456,"ARG_OF_PERICENTER":104.2301,"MEAN_ANOMALY":255.8853,"EPHEMERIS_TYPE":0,"CLASSIFICATION_TYPE":"U","NORAD_CAT_ID":64107,"ELEMENT_SET_NO":999,"REV_AT_EPOCH":1301,"BSTAR":0.00087907,"MEAN_MOTION_DOT":0.00034926,"MEAN_MOTION_DDOT":0},{"OBJECT_NAME":"STARLINK-34156","OBJECT_ID":"2025-110N","EPOCH":"2025-08-07T13:45:49.360608","MEAN_MOTION":15.39634686,"ECCENTRICITY":0.0001072,"INCLINATION":53.1609,"RA_OF_ASC_NODE":307.4735,"ARG_OF_PERICENTER":70.0138,"MEAN_ANOMALY":290.0982,"EPHEMERIS_TYPE":0,"CLASSIFICATION_TYPE":"U","NORAD_CAT_ID":64108,"ELEMENT_SET_NO":999,"REV_AT_EPOCH":1291,"BSTAR":0.00065588,"MEAN_MOTION_DOT":0.00025937,"MEAN_MOTION_DDOT":0},{"OBJECT_NAME":"STARLINK-34124","OBJECT_ID":"2025-110P","EPOCH":"2025-08-08T05:14:23.446752","MEAN_MOTION":15.39636228,"ECCENTRICITY":0.0001405,"INCLINATION":53.1588,"RA_OF_ASC_NODE":304.387,"ARG_OF_PERICENTER":78.2414,"MEAN_ANOMALY":281.8748,"EPHEMERIS_TYPE":0,"CLASSIFICATION_TYPE":"U","NORAD_CAT_ID":64109,"ELEMENT_SET_NO":999,"REV_AT_EPOCH":1301,"BSTAR":0.00056202,"MEAN_MOTION_DOT":0.00022158,"MEAN_MOTION_DDOT":0},{"OBJECT_NAME":"STARLINK-34145","OBJECT_ID":"2025-110Q","EPOCH":"2025-08-07T13:59:40.836192","MEAN_MOTION":15.39630989,"ECCENTRICITY":0.00012179,"INCLINATION":53.1599,"RA_OF_ASC_NODE":307.5333,"ARG_OF_PERICENTER":90.1715,"MEAN_ANOMALY":269.943,"EPHEMERIS_TYPE":0,"CLASSIFICATION_TYPE":"U","NORAD_CAT_ID":64110,"ELEMENT_SET_NO":999,"REV_AT_EPOCH":1301,"BSTAR":0.00085597038,"MEAN_MOTION_DOT":0.00034004,"MEAN_MOTION_DDOT":0},{"OBJECT_NAME":"STARLINK-34148","OBJECT_ID":"2025-110R","EPOCH":"2025-08-08T05:13:54.271200","MEAN_MOTION":15.39641908,"ECCENTRICITY":0.000129,"INCLINATION":53.1597,"RA_OF_ASC_NODE":304.386,"ARG_OF_PERICENTER":75.5028,"MEAN_ANOMALY":284.612,"EPHEMERIS_TYPE":0,"CLASSIFICATION_TYPE":"U","NORAD_CAT_ID":64111,"ELEMENT_SET_NO":999,"REV_AT_EPOCH":1301,"BSTAR":0.0006167,"MEAN_MOTION_DOT":0.00024364,"MEAN_MOTION_DDOT":0},{"OBJECT_NAME":"STARLINK-34136","OBJECT_ID":"2025-110S","EPOCH":"2025-08-07T16:53:15.475776","MEAN_MOTION":15.39640398,"ECCENTRICITY":0.0001097,"INCLINATION":53.1601,"RA_OF_ASC_NODE":306.8617,"ARG_OF_PERICENTER":89.4397,"MEAN_ANOMALY":270.6734,"EPHEMERIS_TYPE":0,"CLASSIFICATION_TYPE":"U","NORAD_CAT_ID":64112,"ELEMENT_SET_NO":999,"REV_AT_EPOCH":1293,"BSTAR":0.00088564,"MEAN_MOTION_DOT":0.00035213,"MEAN_MOTION_DDOT":0},{"OBJECT_NAME":"STARLINK-33839","OBJECT_ID":"2025-110T","EPOCH":"2025-08-08T05:07:13.072800","MEAN_MOTION":15.39630926,"ECCENTRICITY":0.0001348,"INCLINATION":53.1587,"RA_OF_ASC_NODE":304.3534,"ARG_OF_PERICENTER":122.1461,"MEAN_ANOMALY":237.9675,"EPHEMERIS_TYPE":0,"CLASSIFICATION_TYPE":"U","NORAD_CAT_ID":64113,"ELEMENT_SET_NO":999,"REV_AT_EPOCH":1301,"BSTAR":0.00065224,"MEAN_MOTION_DOT":0.00025787,"MEAN_MOTION_DDOT":0},{"OBJECT_NAME":"STARLINK-34064","OBJECT_ID":"2025-110U","EPOCH":"2025-08-08T05:27:16.660224","MEAN_MOTION":15.39635044,"ECCENTRICITY":0.0001006,"INCLINATION":53.1597,"RA_OF_ASC_NODE":304.4411,"ARG_OF_PERICENTER":120.3075,"MEAN_ANOMALY":239.803,"EPHEMERIS_TYPE":0,"CLASSIFICATION_TYPE":"U","NORAD_CAT_ID":64114,"ELEMENT_SET_NO":999,"REV_AT_EPOCH":1301,"BSTAR":0.00063754,"MEAN_MOTION_DOT":0.00025198,"MEAN_MOTION_DDOT":0},{"OBJECT_NAME":"STARLINK-34067","OBJECT_ID":"2025-110V","EPOCH":"2025-08-07T18:06:40.639392","MEAN_MOTION":15.39637955,"ECCENTRICITY":0.0001193,"INCLINATION":53.1589,"RA_OF_ASC_NODE":306.4675,"ARG_OF_PERICENTER":92.9399,"MEAN_ANOMALY":267.1742,"EPHEMERIS_TYPE":0,"CLASSIFICATION_TYPE":"U","NORAD_CAT_ID":64115,"ELEMENT_SET_NO":999,"REV_AT_EPOCH":1294,"BSTAR":0.0011265,"MEAN_MOTION_DOT":0.00044952,"MEAN_MOTION_DDOT":0},{"OBJECT_NAME":"STARLINK-34080","OBJECT_ID":"2025-110W","EPOCH":"2025-08-07T18:06:11.720448","MEAN_MOTION":15.39643966,"ECCENTRICITY":0.0001541,"INCLINATION":53.1592,"RA_OF_ASC_NODE":306.467,"ARG_OF_PERICENTER":51.1039,"MEAN_ANOMALY":309.0103,"EPHEMERIS_TYPE":0,"CLASSIFICATION_TYPE":"U","NORAD_CAT_ID":64116,"ELEMENT_SET_NO":999,"REV_AT_EPOCH":1294,"BSTAR":0.0021418,"MEAN_MOTION_DOT":0.00086315,"MEAN_MOTION_DDOT":0},{"OBJECT_NAME":"STARLINK-34122","OBJECT_ID":"2025-110X","EPOCH":"2025-08-07T13:19:33.470400","MEAN_MOTION":15.39618752,"ECCENTRICITY":0.0001233,"INCLINATION":53.1593,"RA_OF_ASC_NODE":307.3561,"ARG_OF_PERICENTER":80.9464,"MEAN_ANOMALY":279.168,"EPHEMERIS_TYPE":0,"CLASSIFICATION_TYPE":"U","NORAD_CAT_ID":64117,"ELEMENT_SET_NO":999,"REV_AT_EPOCH":1291,"BSTAR":0.00068595,"MEAN_MOTION_DOT":0.00027134,"MEAN_MOTION_DDOT":0}]
